{
  "type": "FeatureCollection",
  "features": [
    {
      "type": "Feature",
      "properties": {
        "norad_id": 37562,
        "name": "IRIDIUM 33 DEB",
        "group": "iridium-33-debris",
        "lat": -6.560733246545328,
        "lon": -138.97948274134095,
        "alt_km": 711.698593686363,
        "timestamp": "2025-12-19T14:48:36.633377+00:00",
        "meta_object_name": "IRIDIUM 33 DEB",
        "meta_object_id": "1997-051XX",
        "meta_epoch": "2025-12-17T21:32:59.557056",
        "meta_mean_motion": 14.56520214,
        "meta_eccentricity": 0.00266504,
        "meta_inclination": 86.3744,
        "meta_ra_of_asc_node": 41.3522,
        "meta_arg_of_pericenter": 91.7117,
        "meta_mean_anomaly": 85.7489,
        "meta_ephemeris_type": 0,
        "meta_classification_type": "U",
        "meta_norad_cat_id": 37562,
        "meta_element_set_no": 999,
        "meta_rev_at_epoch": 86403,
        "meta_bstar": 0.00077741138,
        "meta_mean_motion_dot": 3.496e-05,
        "meta_mean_motion_ddot": 0,
        "tle_line1": "1 37562U 97051XX  25351.89791154  .00003496  00000+0  77741-3 0  9995",
        "tle_line2": "2 37562  86.3744  41.3522 0026650  91.7117  85.7489 14.56520214864031"
      },
      "geometry": {
        "type": "Point",
        "coordinates": [
          -138.97948274134095,
          -6.560733246545328
        ]
      }
    },
    {
      "type": "Feature",
      "properties": {
        "norad_id": 37565,
        "name": "IRIDIUM 33 DEB",
        "group": "iridium-33-debris",
        "lat": -24.042773918482624,
        "lon": -171.7848264960485,
        "alt_km": 734.3868140970962,
        "timestamp": "2025-12-19T14:48:36.633387+00:00",
        "meta_object_name": "IRIDIUM 33 DEB",
        "meta_object_id": "1997-051YA",
        "meta_epoch": "2025-12-18T18:01:14.918304",
        "meta_mean_motion": 14.5154101,
        "meta_eccentricity": 0.00150095,
        "meta_inclination": 86.3492,
        "meta_ra_of_asc_node": 6.9602,
        "meta_arg_of_pericenter": 66.8058,
        "meta_mean_anomaly": 293.4726,
        "meta_ephemeris_type": 0,
        "meta_classification_type": "U",
        "meta_norad_cat_id": 37565,
        "meta_element_set_no": 999,
        "meta_rev_at_epoch": 65924,
        "meta_bstar": 0.00039383298,
        "meta_mean_motion_dot": 1.597e-05,
        "meta_mean_motion_ddot": 0,
        "tle_line1": "1 37565U 97051YA  25352.75086711  .00001597  00000+0  39383-3 0  9990",
        "tle_line2": "2 37565  86.3492   6.9602 0015009  66.8058 293.4726 14.51541010659242"
      },
      "geometry": {
        "type": "Point",
        "coordinates": [
          -171.7848264960485,
          -24.042773918482624
        ]
      }
    },
    {
      "type": "Feature",
      "properties": {
        "norad_id": 38017,
        "name": "IRIDIUM 33 DEB",
        "group": "iridium-33-debris",
        "lat": -53.19827238404198,
        "lon": -11.855900810778044,
        "alt_km": 793.4562519958008,
        "timestamp": "2025-12-19T14:48:36.633397+00:00",
        "meta_object_name": "IRIDIUM 33 DEB",
        "meta_object_id": "1997-051YD",
        "meta_epoch": "2025-12-18T04:36:04.603680",
        "meta_mean_motion": 14.49190685,
        "meta_eccentricity": 0.00919647,
        "meta_inclination": 86.3412,
        "meta_ra_of_asc_node": 163.8576,
        "meta_arg_of_pericenter": 84.7873,
        "meta_mean_anomaly": 276.3818,
        "meta_ephemeris_type": 0,
        "meta_classification_type": "U",
        "meta_norad_cat_id": 38017,
        "meta_element_set_no": 999,
        "meta_rev_at_epoch": 61481,
        "meta_bstar": 0.0038247823,
        "meta_mean_motion_dot": 0.00015406,
        "meta_mean_motion_ddot": 0,
        "tle_line1": "1 38017U 97051YD  25352.19171995  .00015406  00000+0  38248-2 0  9992",
        "tle_line2": "2 38017  86.3412 163.8576 0091964  84.7873 276.3818 14.49190685614819"
      },
      "geometry": {
        "type": "Point",
        "coordinates": [
          -11.855900810778044,
          -53.19827238404198
        ]
      }
    },
    {
      "type": "Feature",
      "properties": {
        "norad_id": 38022,
        "name": "IRIDIUM 33 DEB",
        "group": "iridium-33-debris",
        "lat": -0.7294558365885738,
        "lon": -166.5206120118633,
        "alt_km": 786.5450040003725,
        "timestamp": "2025-12-19T14:48:36.633407+00:00",
        "meta_object_name": "IRIDIUM 33 DEB",
        "meta_object_id": "1997-051YJ",
        "meta_epoch": "2025-12-16T19:19:39.728352",
        "meta_mean_motion": 14.41275031,
        "meta_eccentricity": 0.00461893,
        "meta_inclination": 86.2686,
        "meta_ra_of_asc_node": 14.6628,
        "meta_arg_of_pericenter": 37.5381,
        "meta_mean_anomaly": 322.9028,
        "meta_ephemeris_type": 0,
        "meta_classification_type": "U",
        "meta_norad_cat_id": 38022,
        "meta_element_set_no": 999,
        "meta_rev_at_epoch": 69252,
        "meta_bstar": 0.00076326479,
        "meta_mean_motion_dot": 2.517e-05,
        "meta_mean_motion_ddot": 0,
        "tle_line1": "1 38022U 97051YJ  25350.80532093  .00002517  00000+0  76326-3 0  9993",
        "tle_line2": "2 38022  86.2686  14.6628 0046189  37.5381 322.9028 14.41275031692523"
      },
      "geometry": {
        "type": "Point",
        "coordinates": [
          -166.5206120118633,
          -0.7294558365885738
        ]
      }
    },
    {
      "type": "Feature",
      "properties": {
        "norad_id": 38028,
        "name": "IRIDIUM 33 DEB",
        "group": "iridium-33-debris",
        "lat": 84.04784995356414,
        "lon": 35.33313151644443,
        "alt_km": 709.648478244143,
        "timestamp": "2025-12-19T14:48:36.633417+00:00",
        "meta_object_name": "IRIDIUM 33 DEB",
        "meta_object_id": "1997-051YQ",
        "meta_epoch": "2025-12-19T06:06:55.314432",
        "meta_mean_motion": 14.46188106,
        "meta_eccentricity": 0.00304675,
        "meta_inclination": 86.3253,
        "meta_ra_of_asc_node": 357.437,
        "meta_arg_of_pericenter": 100.5317,
        "meta_mean_anomaly": 259.932,
        "meta_ephemeris_type": 0,
        "meta_classification_type": "U",
        "meta_norad_cat_id": 38028,
        "meta_element_set_no": 999,
        "meta_rev_at_epoch": 65589,
        "meta_bstar": 0.00016949763,
        "meta_mean_motion_dot": 6.3e-06,
        "meta_mean_motion_ddot": 0,
        "tle_line1": "1 38028U 97051YQ  25353.25480688  .00000630  00000+0  16950-3 0  9994",
        "tle_line2": "2 38028  86.3253 357.4370 0030467 100.5317 259.9320 14.46188106655898"
      },
      "geometry": {
        "type": "Point",
        "coordinates": [
          35.33313151644443,
          84.04784995356414
        ]
      }
    },
    {
      "type": "Feature",
      "properties": {
        "norad_id": 38228,
        "name": "IRIDIUM 33 DEB",
        "group": "iridium-33-debris",
        "lat": -85.45654490142961,
        "lon": -9.08973410178454,
        "alt_km": 820.3461656727623,
        "timestamp": "2025-12-19T14:48:36.633427+00:00",
        "meta_object_name": "IRIDIUM 33 DEB",
        "meta_object_id": "1997-051ZC",
        "meta_epoch": "2025-12-15T22:37:05.354976",
        "meta_mean_motion": 14.27271769,
        "meta_eccentricity": 0.00646384,
        "meta_inclination": 86.2946,
        "meta_ra_of_asc_node": 47.1084,
        "meta_arg_of_pericenter": 179.0762,
        "meta_mean_anomaly": 303.5549,
        "meta_ephemeris_type": 0,
        "meta_classification_type": "U",
        "meta_norad_cat_id": 38228,
        "meta_element_set_no": 999,
        "meta_rev_at_epoch": 84827,
        "meta_bstar": 0.00027707855,
        "meta_mean_motion_dot": 7.12e-06,
        "meta_mean_motion_ddot": 0,
        "tle_line1": "1 38228U 97051ZC  25349.94242309  .00000712  00000+0  27708-3 0  9997",
        "tle_line2": "2 38228  86.2946  47.1084 0064638 179.0762 303.5549 14.27271769848277"
      },
      "geometry": {
        "type": "Point",
        "coordinates": [
          -9.08973410178454,
          -85.45654490142961
        ]
      }
    },
    {
      "type": "Feature",
      "properties": {
        "norad_id": 38241,
        "name": "IRIDIUM 33 DEB",
        "group": "iridium-33-debris",
        "lat": 23.506077471962602,
        "lon": 165.96147728440752,
        "alt_km": 709.8773669888697,
        "timestamp": "2025-12-19T14:48:36.633437+00:00",
        "meta_object_name": "IRIDIUM 33 DEB",
        "meta_object_id": "1997-051ZR",
        "meta_epoch": "2025-12-18T18:17:11.654016",
        "meta_mean_motion": 14.54903336,
        "meta_eccentricity": 0.00053297,
        "meta_inclination": 86.3221,
        "meta_ra_of_asc_node": 347.9418,
        "meta_arg_of_pericenter": 59.8994,
        "meta_mean_anomaly": 300.274,
        "meta_ephemeris_type": 0,
        "meta_classification_type": "U",
        "meta_norad_cat_id": 38241,
        "meta_element_set_no": 999,
        "meta_rev_at_epoch": 60288,
        "meta_bstar": 0.0005578999,
        "meta_mean_motion_dot": 2.417e-05,
        "meta_mean_motion_ddot": 0,
        "tle_line1": "1 38241U 97051ZR  25352.76194044  .00002417  00000+0  55790-3 0  9994",
        "tle_line2": "2 38241  86.3221 347.9418 0005329  59.8994 300.2740 14.54903336602889"
      },
      "geometry": {
        "type": "Point",
        "coordinates": [
          165.96147728440752,
          23.506077471962602
        ]
      }
    }
  ]
}